[{"OBJECT_NAME":"STARLINK-36149","OBJECT_ID":"2025-288L","EPOCH":"2026-03-08T21:45:39.555648","MEAN_MOTION":15.27566533,"ECCENTRICITY":9.228e-5,"INCLINATION":42.9976,"RA_OF_ASC_NODE":28.2236,"ARG_OF_PERICENTER":288.8294,"MEAN_ANOMALY":71.2457,"EPHEMERIS_TYPE":0,"CLASSIFICATION_TYPE":"U","NORAD_CAT_ID":66969,"ELEMENT_SET_NO":999,"REV_AT_EPOCH":1516,"BSTAR":0.0011146104,"MEAN_MOTION_DOT":0.00030524,"MEAN_MOTION_DDOT":0},{"OBJECT_NAME":"SIMSAT 2","OBJECT_ID":"2000-026B","EPOCH":"2026-03-09T20:25:01.673184","MEAN_MOTION":15.29036787,"ECCENTRICITY":0.00037035,"INCLINATION":86.3514,"RA_OF_ASC_NODE":176.4271,"ARG_OF_PERICENTER":287.9875,"MEAN_ANOMALY":72.0969,"EPHEMERIS_TYPE":0,"CLASSIFICATION_TYPE":"U","NORAD_CAT_ID":26366,"ELEMENT_SET_NO":999,"REV_AT_EPOCH":42803,"BSTAR":0.00013465771,"MEAN_MOTION_DOT":3.833e-5,"MEAN_MOTION_DDOT":0}]
